{
  "type": "FeatureCollection",
  "features": [
    {
      "type": "Feature",
      "properties": {
        "norad_id": 66380,
        "name": "STARLINK-35139",
        "group": "last-30-days",
        "lat": 41.19989067724232,
        "lon": 79.14393443340744,
        "alt_km": 440.65051625169417,
        "timestamp": "2025-12-05T04:52:14.140857+00:00",
        "meta_object_name": "STARLINK-35139",
        "meta_object_id": "2025-257A",
        "meta_epoch": "2025-12-04T18:00:02.000160",
        "meta_mean_motion": 15.39511878,
        "meta_eccentricity": 0.0001811,
        "meta_inclination": 53.1589,
        "meta_ra_of_asc_node": 302.3007,
        "meta_arg_of_pericenter": 102.6689,
        "meta_mean_anomaly": 30.1701,
        "meta_ephemeris_type": 0,
        "meta_classification_type": "U",
        "meta_norad_cat_id": 66380,
        "meta_element_set_no": 999,
        "meta_rev_at_epoch": 515,
        "meta_bstar": 0.0030246,
        "meta_mean_motion_dot": 0.00122104,
        "meta_mean_motion_ddot": 0,
        "tle_line1": "1 66380U 25257A   25338.75002315  .00122104  00000+0  30246-2 0  9994",
        "tle_line2": "2 66380  53.1589 302.3007 0001811 102.6689  30.1701 15.39511878  5155"
      },
      "geometry": {
        "type": "Point",
        "coordinates": [
          79.14393443340744,
          41.19989067724232
        ]
      }
    },
    {
      "type": "Feature",
      "properties": {
        "norad_id": 66381,
        "name": "STARLINK-35158",
        "group": "last-30-days",
        "lat": 40.06925066890358,
        "lon": 81.06318134787378,
        "alt_km": 441.57174597402536,
        "timestamp": "2025-12-05T04:52:14.140866+00:00",
        "meta_object_name": "STARLINK-35158",
        "meta_object_id": "2025-257B",
        "meta_epoch": "2025-12-04T18:00:02.000160",
        "meta_mean_motion": 15.39487211,
        "meta_eccentricity": 6.46e-05,
        "meta_inclination": 53.1589,
        "meta_ra_of_asc_node": 302.2964,
        "meta_arg_of_pericenter": 118.416,
        "meta_mean_anomaly": 16.3006,
        "meta_ephemeris_type": 0,
        "meta_classification_type": "U",
        "meta_norad_cat_id": 66381,
        "meta_element_set_no": 999,
        "meta_rev_at_epoch": 521,
        "meta_bstar": 0.0034593,
        "meta_mean_motion_dot": 0.00139926,
        "meta_mean_motion_ddot": 0,
        "tle_line1": "1 66381U 25257B   25338.75002315  .00139926  00000+0  34593-2 0  9994",
        "tle_line2": "2 66381  53.1589 302.2964 0000646 118.4160  16.3006 15.39487211  5215"
      },
      "geometry": {
        "type": "Point",
        "coordinates": [
          81.06318134787378,
          40.06925066890358
        ]
      }
    },
    {
      "type": "Feature",
      "properties": {
        "norad_id": 66382,
        "name": "STARLINK-35639",
        "group": "last-30-days",
        "lat": 23.27478264289548,
        "lon": 101.2991329175827,
        "alt_km": 444.8387454228787,
        "timestamp": "2025-12-05T04:52:14.140876+00:00",
        "meta_object_name": "STARLINK-35639",
        "meta_object_id": "2025-257C",
        "meta_epoch": "2025-12-04T18:00:02.000160",
        "meta_mean_motion": 15.3961335,
        "meta_eccentricity": 8.08e-05,
        "meta_inclination": 53.1597,
        "meta_ra_of_asc_node": 302.2474,
        "meta_arg_of_pericenter": 66.1308,
        "meta_mean_anomaly": 92.4753,
        "meta_ephemeris_type": 0,
        "meta_classification_type": "U",
        "meta_norad_cat_id": 66382,
        "meta_element_set_no": 999,
        "meta_rev_at_epoch": 521,
        "meta_bstar": -0.0019703,
        "meta_mean_motion_dot": -0.00078385,
        "meta_mean_motion_ddot": 0,
        "tle_line1": "1 66382U 25257C   25338.75002315 -.00078385  00000+0 -19703-2 0  9994",
        "tle_line2": "2 66382  53.1597 302.2474 0000808  66.1308  92.4753 15.39613350  5213"
      },
      "geometry": {
        "type": "Point",
        "coordinates": [
          101.2991329175827,
          23.27478264289548
        ]
      }
    },
    {
      "type": "Feature",
      "properties": {
        "norad_id": 66383,
        "name": "STARLINK-35690",
        "group": "last-30-days",
        "lat": 3.053921889725312,
        "lon": 117.76896054669362,
        "alt_km": 448.20923331100676,
        "timestamp": "2025-12-05T04:52:14.140887+00:00",
        "meta_object_name": "STARLINK-35690",
        "meta_object_id": "2025-257D",
        "meta_epoch": "2025-12-04T18:00:02.000160",
        "meta_mean_motion": 15.39602904,
        "meta_eccentricity": 0.0001298,
        "meta_inclination": 53.16,
        "meta_ra_of_asc_node": 302.1959,
        "meta_arg_of_pericenter": 68.1966,
        "meta_mean_anomaly": 116.1738,
        "meta_ephemeris_type": 0,
        "meta_classification_type": "U",
        "meta_norad_cat_id": 66383,
        "meta_element_set_no": 999,
        "meta_rev_at_epoch": 521,
        "meta_bstar": -0.0016852,
        "meta_mean_motion_dot": -0.00067178,
        "meta_mean_motion_ddot": 0,
        "tle_line1": "1 66383U 25257D   25338.75002315 -.00067178  00000+0 -16852-2 0  9995",
        "tle_line2": "2 66383  53.1600 302.1959 0001298  68.1966 116.1738 15.39602904  5212"
      },
      "geometry": {
        "type": "Point",
        "coordinates": [
          117.76896054669362,
          3.053921889725312
        ]
      }
    },
    {
      "type": "Feature",
      "properties": {
        "norad_id": 66384,
        "name": "STARLINK-35662",
        "group": "last-30-days",
        "lat": 1.595776924183794,
        "lon": 118.8618929067194,
        "alt_km": 447.8184581398582,
        "timestamp": "2025-12-05T04:52:14.140896+00:00",
        "meta_object_name": "STARLINK-35662",
        "meta_object_id": "2025-257E",
        "meta_epoch": "2025-12-04T18:00:02.000160",
        "meta_mean_motion": 15.39456784,
        "meta_eccentricity": 0.0001453,
        "meta_inclination": 53.1601,
        "meta_ra_of_asc_node": 302.1931,
        "meta_arg_of_pericenter": 95.8869,
        "meta_mean_anomaly": 90.3761,
        "meta_ephemeris_type": 0,
        "meta_classification_type": "U",
        "meta_norad_cat_id": 66384,
        "meta_element_set_no": 999,
        "meta_rev_at_epoch": 521,
        "meta_bstar": 0.0039675,
        "meta_mean_motion_dot": 0.00160822,
        "meta_mean_motion_ddot": 0,
        "tle_line1": "1 66384U 25257E   25338.75002315  .00160822  00000+0  39675-2 0  9992",
        "tle_line2": "2 66384  53.1601 302.1931 0001453  95.8869  90.3761 15.39456784  5218"
      },
      "geometry": {
        "type": "Point",
        "coordinates": [
          118.8618929067194,
          1.595776924183794
        ]
      }
    },
    {
      "type": "Feature",
      "properties": {
        "norad_id": 66385,
        "name": "STARLINK-35659",
        "group": "last-30-days",
        "lat": 21.888108890274086,
        "lon": 102.57963164799557,
        "alt_km": 444.758642904063,
        "timestamp": "2025-12-05T04:52:14.140906+00:00",
        "meta_object_name": "STARLINK-35659",
        "meta_object_id": "2025-257F",
        "meta_epoch": "2025-12-04T18:00:02.000160",
        "meta_mean_motion": 15.39582232,
        "meta_eccentricity": 9.26e-05,
        "meta_inclination": 53.1597,
        "meta_ra_of_asc_node": 302.2443,
        "meta_arg_of_pericenter": 93.334,
        "meta_mean_anomaly": 67.1116,
        "meta_ephemeris_type": 0,
        "meta_classification_type": "U",
        "meta_norad_cat_id": 66385,
        "meta_element_set_no": 999,
        "meta_rev_at_epoch": 521,
        "meta_bstar": -0.00082128,
        "meta_mean_motion_dot": -0.00033066,
        "meta_mean_motion_ddot": 0,
        "tle_line1": "1 66385U 25257F   25338.75002315 -.00033066  00000+0 -82128-3 0  9996",
        "tle_line2": "2 66385  53.1597 302.2443 0000926  93.3340  67.1116 15.39582232  5217"
      },
      "geometry": {
        "type": "Point",
        "coordinates": [
          102.57963164799557,
          21.888108890274086
        ]
      }
    },
    {
      "type": "Feature",
      "properties": {
        "norad_id": 66386,
        "name": "STARLINK-35651",
        "group": "last-30-days",
        "lat": -17.38042813466031,
        "lon": 133.58214151276457,
        "alt_km": 450.4305640778384,
        "timestamp": "2025-12-05T04:52:14.140915+00:00",
        "meta_object_name": "STARLINK-35651",
        "meta_object_id": "2025-257G",
        "meta_epoch": "2025-12-04T18:00:02.000160",
        "meta_mean_motion": 15.39506783,
        "meta_eccentricity": 0.0001703,
        "meta_inclination": 53.1603,
        "meta_ra_of_asc_node": 302.1449,
        "meta_arg_of_pericenter": 94.3347,
        "meta_mean_anomaly": 115.7974,
        "meta_ephemeris_type": 0,
        "meta_classification_type": "U",
        "meta_norad_cat_id": 66386,
        "meta_element_set_no": 999,
        "meta_rev_at_epoch": 521,
        "meta_bstar": 0.002853,
        "meta_mean_motion_dot": 0.00115026,
        "meta_mean_motion_ddot": 0,
        "tle_line1": "1 66386U 25257G   25338.75002315  .00115026  00000+0  28530-2 0  9998",
        "tle_line2": "2 66386  53.1603 302.1449 0001703  94.3347 115.7974 15.39506783  5212"
      },
      "geometry": {
        "type": "Point",
        "coordinates": [
          133.58214151276457,
          -17.38042813466031
        ]
      }
    }
  ]
}